SL-14 R/B               
1 16792U 86046B   25356.88584724  .00000530  00000+0  58245-4 0  9991
2 16792  82.4815 152.7319 0024430 120.1409 240.2233 14.85495305115000
SL-14 R/B               
1 16882U 86055B   25356.96117111  .00000452  00000+0  49382-4 0  9997
2 16882  82.5196 198.7681 0017855 222.9426 252.1046 14.85540177107977
AJISAI (EGS)            
1 16908U 86061A   25356.94737424 -.00000090  00000+0  49504-4 0  9991
2 16908  50.0113 329.3296 0011313  91.5551   1.7207 12.44514403458445
COSMOS 1812             
1 17295U 87003A   25356.82281194  .00109794  00000+0  65615-3 0  9993
2 17295  82.4878 281.0855 0006559  71.2388 288.9589 15.77502270132243
SL-14 R/B               
1 17567U 87024B   25356.54309689  .00000483  00000+0  52248-4 0  9991
2 17567  82.5276 165.2449 0018938 152.1591 208.0644 14.86033399 76678
COSMOS 1833             
1 17589U 87027A   25356.77010810  .00000249  00000+0  15896-3 0  9995
2 17589  70.9155 127.6916 0022957 317.7105  42.2245 14.13026584999448
SL-16 R/B               
1 17590U 87027B   25356.47261340  .00000110  00000+0  78520-4 0  9991
2 17590  71.0038  79.2099 0007232 249.4522 110.5826 14.17156117  4406
SL-14 R/B               
1 17912U 87038B   25356.76786897  .00000416  00000+0  45408-4 0  9990
2 17912  82.5009   9.2548 0020699  61.3131 299.0162 14.85269791 67818
COSMOS 1844             
1 17973U 87041A   25356.88652214  .00000302  00000+0  18195-3 0  9995
2 17973  70.8965 196.1696 0029706 141.0360 219.2910 14.14529747992728
SL-14 R/B               
1 18153U 87055B   25356.62326638  .00000448  00000+0  48978-4 0  9995
2 18153  82.4993  61.6739 0019156 268.1807  91.7215 14.85530695 58498
COSMOS 1867             
1 18187U 87060A   25356.80276633 -.00000040  00000+0  22607-4 0  9997
2 18187  65.0087 162.0217 0013657 272.0830  87.8691 14.31487599  8936
SL-14 R/B               
1 18749U 88001B   25356.81561925  .00000453  00000+0  49585-4 0  9990
2 18749  82.5135 267.6709 0019262 129.2527 231.0402 14.85433734 30614
