CCSDS_OMM_VERS = 2.0
CREATION_DATE  = 
ORIGINATOR     = 

OBJECT_NAME    = SL-14 R/B
OBJECT_ID      = 1986-046B
CENTER_NAME    = EARTH
REF_FRAME      = TEME
TIME_SYSTEM    = UTC
MEAN_ELEMENT_THEORY = SGP/SGP4

EPOCH          = 2025-12-22T21:15:37.201536
MEAN_MOTION    = 14.85495305
ECCENTRICITY   = .00244308
INCLINATION    = 82.4815
RA_OF_ASC_NODE = 152.7319
ARG_OF_PERICENTER = 120.1409
MEAN_ANOMALY   = 240.2233

EPHEMERIS_TYPE = 0
CLASSIFICATION_TYPE = U
NORAD_CAT_ID   = 16792
ELEMENT_SET_NO = 999
REV_AT_EPOCH   = 11500
BSTAR          = .58245146E-4
MEAN_MOTION_DOT = .53E-5
MEAN_MOTION_DDOT = 0

CCSDS_OMM_VERS = 2.0
CREATION_DATE  = 
ORIGINATOR     = 

OBJECT_NAME    = SL-14 R/B
OBJECT_ID      = 1986-055B
CENTER_NAME    = EARTH
REF_FRAME      = TEME
TIME_SYSTEM    = UTC
MEAN_ELEMENT_THEORY = SGP/SGP4

EPOCH          = 2025-12-22T23:04:05.183904
MEAN_MOTION    = 14.85540177
ECCENTRICITY   = .0017855
INCLINATION    = 82.5196
RA_OF_ASC_NODE = 198.7681
ARG_OF_PERICENTER = 222.9426
MEAN_ANOMALY   = 252.1046

EPHEMERIS_TYPE = 0
CLASSIFICATION_TYPE = U
NORAD_CAT_ID   = 16882
ELEMENT_SET_NO = 999
REV_AT_EPOCH   = 10797
BSTAR          = .49382169E-4
MEAN_MOTION_DOT = .452E-5
MEAN_MOTION_DDOT = 0

CCSDS_OMM_VERS = 2.0
CREATION_DATE  = 
ORIGINATOR     = 

OBJECT_NAME    = AJISAI (EGS)
OBJECT_ID      = 1986-061A
CENTER_NAME    = EARTH
REF_FRAME      = TEME
TIME_SYSTEM    = UTC
MEAN_ELEMENT_THEORY = SGP/SGP4

EPOCH          = 2025-12-22T22:44:13.134336
MEAN_MOTION    = 12.44514403
ECCENTRICITY   = .00113132
INCLINATION    = 50.0113
RA_OF_ASC_NODE = 329.3296
ARG_OF_PERICENTER = 91.5551
MEAN_ANOMALY   = 1.7207

EPHEMERIS_TYPE = 0
CLASSIFICATION_TYPE = U
NORAD_CAT_ID   = 16908
ELEMENT_SET_NO = 999
REV_AT_EPOCH   = 45844
BSTAR          = .4950364E-4
MEAN_MOTION_DOT = -.9E-6
MEAN_MOTION_DDOT = 0

CCSDS_OMM_VERS = 2.0
CREATION_DATE  = 
ORIGINATOR     = 

OBJECT_NAME    = COSMOS 1812
OBJECT_ID      = 1987-003A
CENTER_NAME    = EARTH
REF_FRAME      = TEME
TIME_SYSTEM    = UTC
MEAN_ELEMENT_THEORY = SGP/SGP4

EPOCH          = 2025-12-22T19:44:50.951616
MEAN_MOTION    = 15.77502270
ECCENTRICITY   = .00065594
INCLINATION    = 82.4878
RA_OF_ASC_NODE = 281.0855
ARG_OF_PERICENTER = 71.2388
MEAN_ANOMALY   = 288.9589

EPHEMERIS_TYPE = 0
CLASSIFICATION_TYPE = U
NORAD_CAT_ID   = 17295
ELEMENT_SET_NO = 999
REV_AT_EPOCH   = 13224
BSTAR          = .6561503E-3
MEAN_MOTION_DOT = .109794E-2
MEAN_MOTION_DDOT = 0

CCSDS_OMM_VERS = 2.0
CREATION_DATE  = 
ORIGINATOR     = 

OBJECT_NAME    = SL-14 R/B
OBJECT_ID      = 1987-024B
CENTER_NAME    = EARTH
REF_FRAME      = TEME
TIME_SYSTEM    = UTC
MEAN_ELEMENT_THEORY = SGP/SGP4

EPOCH          = 2025-12-22T13:02:03.571296
MEAN_MOTION    = 14.86033399
ECCENTRICITY   = .00189385
INCLINATION    = 82.5276
RA_OF_ASC_NODE = 165.2449
ARG_OF_PERICENTER = 152.1591
MEAN_ANOMALY   = 208.0644

EPHEMERIS_TYPE = 0
CLASSIFICATION_TYPE = U
NORAD_CAT_ID   = 17567
ELEMENT_SET_NO = 999
REV_AT_EPOCH   = 7667
BSTAR          = .52248074E-4
MEAN_MOTION_DOT = .483E-5
MEAN_MOTION_DDOT = 0

CCSDS_OMM_VERS = 2.0
CREATION_DATE  = 
ORIGINATOR     = 

OBJECT_NAME    = COSMOS 1833
OBJECT_ID      = 1987-027A
CENTER_NAME    = EARTH
REF_FRAME      = TEME
TIME_SYSTEM    = UTC
MEAN_ELEMENT_THEORY = SGP/SGP4

EPOCH          = 2025-12-22T18:28:57.339840
MEAN_MOTION    = 14.13026584
ECCENTRICITY   = .00229571
INCLINATION    = 70.9155
RA_OF_ASC_NODE = 127.6916
ARG_OF_PERICENTER = 317.7105
MEAN_ANOMALY   = 42.2245

EPHEMERIS_TYPE = 0
CLASSIFICATION_TYPE = U
NORAD_CAT_ID   = 17589
ELEMENT_SET_NO = 999
REV_AT_EPOCH   = 99944
BSTAR          = .15895811E-3
MEAN_MOTION_DOT = .249E-5
MEAN_MOTION_DDOT = 0

CCSDS_OMM_VERS = 2.0
CREATION_DATE  = 
ORIGINATOR     = 

OBJECT_NAME    = SL-16 R/B
OBJECT_ID      = 1987-027B
CENTER_NAME    = EARTH
REF_FRAME      = TEME
TIME_SYSTEM    = UTC
MEAN_ELEMENT_THEORY = SGP/SGP4

EPOCH          = 2025-12-22T11:20:33.797760
MEAN_MOTION    = 14.17156117
ECCENTRICITY   = .00072322
INCLINATION    = 71.0038
RA_OF_ASC_NODE = 79.2099
ARG_OF_PERICENTER = 249.4522
MEAN_ANOMALY   = 110.5826

EPHEMERIS_TYPE = 0
CLASSIFICATION_TYPE = U
NORAD_CAT_ID   = 17590
ELEMENT_SET_NO = 999
REV_AT_EPOCH   = 440
BSTAR          = .78520038E-4
MEAN_MOTION_DOT = .11E-5
MEAN_MOTION_DDOT = 0

CCSDS_OMM_VERS = 2.0
CREATION_DATE  = 
ORIGINATOR     = 

OBJECT_NAME    = SL-14 R/B
OBJECT_ID      = 1987-038B
CENTER_NAME    = EARTH
REF_FRAME      = TEME
TIME_SYSTEM    = UTC
MEAN_ELEMENT_THEORY = SGP/SGP4

EPOCH          = 2025-12-22T18:25:43.879008
MEAN_MOTION    = 14.85269791
ECCENTRICITY   = .00206992
INCLINATION    = 82.5009
RA_OF_ASC_NODE = 9.2548
ARG_OF_PERICENTER = 61.3131
MEAN_ANOMALY   = 299.0162

EPHEMERIS_TYPE = 0
CLASSIFICATION_TYPE = U
NORAD_CAT_ID   = 17912
ELEMENT_SET_NO = 999
REV_AT_EPOCH   = 6781
BSTAR          = .45408145E-4
MEAN_MOTION_DOT = .416E-5
MEAN_MOTION_DDOT = 0

CCSDS_OMM_VERS = 2.0
CREATION_DATE  = 
ORIGINATOR     = 

OBJECT_NAME    = COSMOS 1844
OBJECT_ID      = 1987-041A
CENTER_NAME    = EARTH
REF_FRAME      = TEME
TIME_SYSTEM    = UTC
MEAN_ELEMENT_THEORY = SGP/SGP4

EPOCH          = 2025-12-22T21:16:35.512896
MEAN_MOTION    = 14.14529747
ECCENTRICITY   = .0029706
INCLINATION    = 70.8965
RA_OF_ASC_NODE = 196.1696
ARG_OF_PERICENTER = 141.0360
MEAN_ANOMALY   = 219.2910

EPHEMERIS_TYPE = 0
CLASSIFICATION_TYPE = U
NORAD_CAT_ID   = 17973
ELEMENT_SET_NO = 999
REV_AT_EPOCH   = 99272
BSTAR          = .18195247E-3
MEAN_MOTION_DOT = .302E-5
MEAN_MOTION_DDOT = 0

CCSDS_OMM_VERS = 2.0
CREATION_DATE  = 
ORIGINATOR     = 

OBJECT_NAME    = SL-14 R/B
OBJECT_ID      = 1987-055B
CENTER_NAME    = EARTH
REF_FRAME      = TEME
TIME_SYSTEM    = UTC
MEAN_ELEMENT_THEORY = SGP/SGP4

EPOCH          = 2025-12-22T14:57:30.215232
MEAN_MOTION    = 14.85530695
ECCENTRICITY   = .00191561
INCLINATION    = 82.4993
RA_OF_ASC_NODE = 61.6739
ARG_OF_PERICENTER = 268.1807
MEAN_ANOMALY   = 91.7215

EPHEMERIS_TYPE = 0
CLASSIFICATION_TYPE = U
NORAD_CAT_ID   = 18153
ELEMENT_SET_NO = 999
REV_AT_EPOCH   = 5849
BSTAR          = .48978005E-4
MEAN_MOTION_DOT = .448E-5
MEAN_MOTION_DDOT = 0

CCSDS_OMM_VERS = 2.0
CREATION_DATE  = 
ORIGINATOR     = 

OBJECT_NAME    = COSMOS 1867
OBJECT_ID      = 1987-060A
CENTER_NAME    = EARTH
REF_FRAME      = TEME
TIME_SYSTEM    = UTC
MEAN_ELEMENT_THEORY = SGP/SGP4

EPOCH          = 2025-12-22T19:15:59.010912
MEAN_MOTION    = 14.31487599
ECCENTRICITY   = .00136573
INCLINATION    = 65.0087
RA_OF_ASC_NODE = 162.0217
ARG_OF_PERICENTER = 272.0830
MEAN_ANOMALY   = 87.8691

EPHEMERIS_TYPE = 0
CLASSIFICATION_TYPE = U
NORAD_CAT_ID   = 18187
ELEMENT_SET_NO = 999
REV_AT_EPOCH   = 893
BSTAR          = .22607362E-4
MEAN_MOTION_DOT = -.4E-6
MEAN_MOTION_DDOT = 0

CCSDS_OMM_VERS = 2.0
CREATION_DATE  = 
ORIGINATOR     = 

OBJECT_NAME    = SL-14 R/B
OBJECT_ID      = 1988-001B
CENTER_NAME    = EARTH
REF_FRAME      = TEME
TIME_SYSTEM    = UTC
MEAN_ELEMENT_THEORY = SGP/SGP4

EPOCH          = 2025-12-22T19:34:29.503200
MEAN_MOTION    = 14.85433734
ECCENTRICITY   = .00192621
INCLINATION    = 82.5135
RA_OF_ASC_NODE = 267.6709
ARG_OF_PERICENTER = 129.2527
MEAN_ANOMALY   = 231.0402

EPHEMERIS_TYPE = 0
CLASSIFICATION_TYPE = U
NORAD_CAT_ID   = 18749
ELEMENT_SET_NO = 999
REV_AT_EPOCH   = 3061
BSTAR          = .49585405E-4
MEAN_MOTION_DOT = .453E-5
MEAN_MOTION_DDOT = 0

